{"type": "FeatureCollection", "features": [ {"type": "Feature", "properties": {"norad_id": 39541, "name": "FENGYUN 1C DEB", "group": "fengyun-1c-debris", "lat": -21.958432366386965, "lon": 40.43406183826441, "alt_km": 812.8899399393304, "timestamp": "2025-12-20T22:39:10.915050+00:00", "meta": {"OBJECT_NAME": "FENGYUN 1C DEB", "OBJECT_ID": "1999-025EWJ", "EPOCH": "2025-12-14T09:31:50.250432", "MEAN_MOTION": 14.20397112, "ECCENTRICITY": 0.00718166, "INCLINATION": 98.681, "RA_OF_ASC_NODE": 30.4764, "ARG_OF_PERICENTER": 68.7411, "MEAN_ANOMALY": 292.1416, "EPHEMERIS_TYPE": 0, "CLASSIFICATION_TYPE": "U", "NORAD_CAT_ID": 39541, "ELEMENT_SET_NO": 999, "REV_AT_EPOCH": 59026, "BSTAR": 0.00071004371, "MEAN_MOTION_DOT": 1.519e-05, "MEAN_MOTION_DDOT": 0}, "tle": {"line1": "1 39541U 99025EWJ 25348.39710938  .00001519  00000+0  71004-3 0  9999", "line2": "2 39541  98.6810  30.4764 0071816  68.7411 292.1416 14.20397112590267"}}, "geometry": {"type": "Point", "coordinates": [40.43406183826441, -21.958432366386965]}}, {"type": "Feature", "properties": {"norad_id": 39543, "name": "FENGYUN 1C DEB", "group": "fengyun-1c-debris", "lat": 69.16749428529056, "lon": -130.94982724750815, "alt_km": 746.8506192566838, "timestamp": "2025-12-20T22:39:10.915059+00:00", "meta": {"OBJECT_NAME": "FENGYUN 1C DEB", "OBJECT_ID": "1999-025EWL", "EPOCH": "2025-12-18T08:47:52.753056", "MEAN_MOTION": 13.70202499, "ECCENTRICITY": 0.03390808, "INCLINATION": 99.0409, "RA_OF_ASC_NODE": 21.8883, "ARG_OF_PERICENTER": 127.4128, "MEAN_ANOMALY": 235.8396, "EPHEMERIS_TYPE": 0, "CLASSIFICATION_TYPE": "U", "NORAD_CAT_ID": 39543, "ELEMENT_SET_NO": 999, "REV_AT_EPOCH": 49262, "BSTAR": 0.00072405565, "MEAN_MOTION_DOT": 9.19e-06, "MEAN_MOTION_DDOT": 0}, "tle": {"line1": "1 39543U 99025EWL 25352.36658279  .00000919  00000+0  72406-3 0  9992", "line2": "2 39543  99.0409  21.8883 0339080 127.4128 235.8396 13.70202499492621"}}, "geometry": {"type": "Point", "coordinates": [-130.94982724750815, 69.16749428529056]}}, {"type": "Feature", "properties": {"norad_id": 39544, "name": "FENGYUN 1C DEB", "group": "fengyun-1c-debris", "lat": 55.483870520556216, "lon": 66.7231816822194, "alt_km": 898.1571103355527, "timestamp": "2025-12-20T22:39:10.915068+00:00", "meta": {"OBJECT_NAME": "FENGYUN 1C DEB", "OBJECT_ID": "1999-025EWM", "EPOCH": "2025-12-18T10:16:20.672256", "MEAN_MOTION": 14.05533723, "ECCENTRICITY": 0.00544071, "INCLINATION": 98.7417, "RA_OF_ASC_NODE": 231.3683, "ARG_OF_PERICENTER": 353.4562, "MEAN_ANOMALY": 6.589, "EPHEMERIS_TYPE": 0, "CLASSIFICATION_TYPE": "U", "NORAD_CAT_ID": 39544, "ELEMENT_SET_NO": 999, "REV_AT_EPOCH": 56935, "BSTAR": 0.00032895311, "MEAN_MOTION_DOT": 4.99e-06, "MEAN_MOTION_DDOT": 0}, "tle": {"line1": "1 39544U 99025EWM 25352.42801704  .00000499  00000+0  32895-3 0  9994", "line2": "2 39544  98.7417 231.3683 0054407 353.4562   6.5890 14.05533723569356"}}, "geometry": {"type": "Point", "coordinates": [66.7231816822194, 55.483870520556216]}}, {"type": "Feature", "properties": {"norad_id": 40688, "name": "FENGYUN 1C DEB", "group": "fengyun-1c-debris", "lat": 20.6618517378215, "lon": -32.45890476974265, "alt_km": 1039.4871342780089, "timestamp": "2025-12-20T22:39:10.915077+00:00", "meta": {"OBJECT_NAME": "FENGYUN 1C DEB", "OBJECT_ID": "1999-025EWU", "EPOCH": "2025-12-16T15:30:51.926976", "MEAN_MOTION": 13.83832455, "ECCENTRICITY": 0.01420789, "INCLINATION": 98.9687, "RA_OF_ASC_NODE": 140.0258, "ARG_OF_PERICENTER": 21.0434, "MEAN_ANOMALY": 339.6489, "EPHEMERIS_TYPE": 0, "CLASSIFICATION_TYPE": "U", "NORAD_CAT_ID": 40688, "ELEMENT_SET_NO": 999, "REV_AT_EPOCH": 29971, "BSTAR": 0.00034363233, "MEAN_MOTION_DOT": 3.7e-06, "MEAN_MOTION_DDOT": 0}, "tle": {"line1": "1 40688U 99025EWU 25350.64643434  .00000370  00000+0  34363-3 0  9991", "line2": "2 40688  98.9687 140.0258 0142078  21.0434 339.6489 13.83832455299713"}}, "geometry": {"type": "Point", "coordinates": [-32.45890476974265, 20.6618517378215]}}, {"type": "Feature", "properties": {"norad_id": 40689, "name": "FENGYUN 1C DEB", "group": "fengyun-1c-debris", "lat": 42.22753495325121, "lon": -95.96154127068631, "alt_km": 828.9897051151884, "timestamp": "2025-12-20T22:39:10.915086+00:00", "meta": {"OBJECT_NAME": "FENGYUN 1C DEB", "OBJECT_ID": "1999-025EWV", "EPOCH": "2025-12-15T14:00:17.692704", "MEAN_MOTION": 13.64713186, "ECCENTRICITY": 0.03107205, "INCLINATION": 99.1258, "RA_OF_ASC_NODE": 267.381, "ARG_OF_PERICENTER": 93.9269, "MEAN_ANOMALY": 269.7453, "EPHEMERIS_TYPE": 0, "CLASSIFICATION_TYPE": "U", "NORAD_CAT_ID": 40689, "ELEMENT_SET_NO": 999, "REV_AT_EPOCH": 54922, "BSTAR": 0.0014500265, "MEAN_MOTION_DOT": 1.584e-05, "MEAN_MOTION_DDOT": 0}, "tle": {"line1": "1 40689U 99025EWV 25349.58353811  .00001584  00000+0  14500-2 0  9998", "line2": "2 40689  99.1258 267.3810 0310720  93.9269 269.7453 13.64713186549229"}}, "geometry": {"type": "Point", "coordinates": [-95.96154127068631, 42.22753495325121]}}, {"type": "Feature", "properties": {"norad_id": 40691, "name": "FENGYUN 1C DEB", "group": "fengyun-1c-debris", "lat": 1.7025669682319458, "lon": -152.73901617479515, "alt_km": 963.5904684217339, "timestamp": "2025-12-20T22:39:10.915095+00:00", "meta": {"OBJECT_NAME": "FENGYUN 1C DEB", "OBJECT_ID": "1999-025EWX", "EPOCH": "2025-12-03T08:15:02.306016", "MEAN_MOTION": 13.89944729, "ECCENTRICITY": 0.0128434, "INCLINATION": 99.0573, "RA_OF_ASC_NODE": 9.8547, "ARG_OF_PERICENTER": 336.6089, "MEAN_ANOMALY": 22.9259, "EPHEMERIS_TYPE": 0, "CLASSIFICATION_TYPE": "U", "NORAD_CAT_ID": 40691, "ELEMENT_SET_NO": 999, "REV_AT_EPOCH": 55305, "BSTAR": 0.00023937, "MEAN_MOTION_DOT": 2.71e-06, "MEAN_MOTION_DDOT": 0}, "tle": {"line1": "1 40691U 99025EWX 25337.34377669  .00000271  00000+0  23937-3 0  9996", "line2": "2 40691  99.0573   9.8547 0128434 336.6089  22.9259 13.89944729553058"}}, "geometry": {"type": "Point", "coordinates": [-152.73901617479515, 1.7025669682319458]}}, {"type": "Feature", "properties": {"norad_id": 40695, "name": "FENGYUN 1C DEB", "group": "fengyun-1c-debris", "lat": -61.24080764801208, "lon": -83.46922709978317, "alt_km": 643.9381321383071, "timestamp": "2025-12-20T22:39:10.915104+00:00", "meta": {"OBJECT_NAME": "FENGYUN 1C DEB", "OBJECT_ID": "1999-025EXB", "EPOCH": "2025-12-20T01:39:13.620960", "MEAN_MOTION": 14.50978361, "ECCENTRICITY": 0.0280485, "INCLINATION": 99.4265, "RA_OF_ASC_NODE": 113.1701, "ARG_OF_PERICENTER": 311.2419, "MEAN_ANOMALY": 46.4907, "EPHEMERIS_TYPE": 0, "CLASSIFICATION_TYPE": "U", "NORAD_CAT_ID": 40695, "ELEMENT_SET_NO": 999, "REV_AT_EPOCH": 31972, "BSTAR": 0.0001467559, "MEAN_MOTION_DOT": 8.87e-06, "MEAN_MOTION_DDOT": 0}, "tle": {"line1": "1 40695U 99025EXB 25354.06890765  .00000887  00000+0  14676-3 0  9998", "line2": "2 40695  99.4265 113.1701 0280485 311.2419  46.4907 14.50978361319729"}}, "geometry": {"type": "Point", "coordinates": [-83.46922709978317, -61.24080764801208]}}, {"type": "Feature", "properties": {"norad_id": 40696, "name": "FENGYUN 1C DEB", "group": "fengyun-1c-debris", "lat": -31.749201725210035, "lon": -12.914720770987396, "alt_km": 853.5367484891776, "timestamp": "2025-12-20T22:39:10.915113+00:00", "meta": {"OBJECT_NAME": "FENGYUN 1C DEB", "OBJECT_ID": "1999-025EXC", "EPOCH": "2025-12-17T05:24:20.221920", "MEAN_MOTION": 13.96744083, "ECCENTRICITY": 0.00795529, "INCLINATION": 98.9563, "RA_OF_ASC_NODE": 337.8647, "ARG_OF_PERICENTER": 345.1128, "MEAN_ANOMALY": 14.7694, "EPHEMERIS_TYPE": 0, "CLASSIFICATION_TYPE": "U", "NORAD_CAT_ID": 40696, "ELEMENT_SET_NO": 999, "REV_AT_EPOCH": 55742, "BSTAR": 8.1397831e-05, "MEAN_MOTION_DOT": 7.3e-07, "MEAN_MOTION_DDOT": 0}, "tle": {"line1": "1 40696U 99025EXC 25351.22523405  .00000073  00000+0  81398-4 0  9991", "line2": "2 40696  98.9563 337.8647 0079552 345.1128  14.7694 13.96744083557426"}}, "geometry": {"type": "Point", "coordinates": [-12.914720770987396, -31.749201725210035]}}, {"type": "Feature", "properties": {"norad_id": 41003, "name": "FENGYUN 1C DEB", "group": "fengyun-1c-debris", "lat": -43.98734892067945, "lon": -76.33098227048562, "alt_km": 625.477710606333, "timestamp": "2025-12-20T22:39:10.915121+00:00", "meta": {"OBJECT_NAME": "FENGYUN 1C DEB", "OBJECT_ID": "1999-025EXH", "EPOCH": "2025-12-18T12:10:10.012512", "MEAN_MOTION": 14.73078069, "ECCENTRICITY": 0.00691513, "INCLINATION": 98.9664, "RA_OF_ASC_NODE": 272.2138, "ARG_OF_PERICENTER": 274.1099, "MEAN_ANOMALY": 85.2204, "EPHEMERIS_TYPE": 0, "CLASSIFICATION_TYPE": "U", "NORAD_CAT_ID": 41003, "ELEMENT_SET_NO": 999, "REV_AT_EPOCH": 52505, "BSTAR": 0.0031269645, "MEAN_MOTION_DOT": 0.00020893, "MEAN_MOTION_DDOT": 0}, "tle": {"line1": "1 41003U 99025EXH 25352.50706033  .00020893  00000+0  31270-2 0  9990", "line2": "2 41003  98.9664 272.2138 0069151 274.1099  85.2204 14.73078069525054"}}, "geometry": {"type": "Point", "coordinates": [-76.33098227048562, -43.98734892067945]}}, {"type": "Feature", "properties": {"norad_id": 41006, "name": "FENGYUN 1C DEB", "group": "fengyun-1c-debris", "lat": 47.239726237825785, "lon": 62.0529743596333, "alt_km": 1048.9340083873867, "timestamp": "2025-12-20T22:39:10.915130+00:00", "meta": {"OBJECT_NAME": "FENGYUN 1C DEB", "OBJECT_ID": "1999-025EXL", "EPOCH": "2025-12-19T21:45:46.059840", "MEAN_MOTION": 13.85407302, "ECCENTRICITY": 0.0190575, "INCLINATION": 102.3676, "RA_OF_ASC_NODE": 226.9637, "ARG_OF_PERICENTER": 351.9089, "MEAN_ANOMALY": 7.8995, "EPHEMERIS_TYPE": 0, "CLASSIFICATION_TYPE": "U", "NORAD_CAT_ID": 41006, "ELEMENT_SET_NO": 999, "REV_AT_EPOCH": 57588, "BSTAR": 0.0020631, "MEAN_MOTION_DOT": 2.639e-05, "MEAN_MOTION_DDOT": 0}, "tle": {"line1": "1 41006U 99025EXL 25353.90678310  .00002639  00000+0  20631-2 0  9991", "line2": "2 41006 102.3676 226.9637 0190575 351.9089   7.8995 13.85407302575889"}}, "geometry": {"type": "Point", "coordinates": [62.0529743596333, 47.239726237825785]}}]}